[{"OBJECT_NAME":"GRUS-1E","OBJECT_ID":"2021-022D","EPOCH":"2026-03-09T12:23:25.554336","MEAN_MOTION":14.99578755,"ECCENTRICITY":0.0012887,"INCLINATION":97.5572,"RA_OF_ASC_NODE":315.9955,"ARG_OF_PERICENTER":315.738,"MEAN_ANOMALY":44.2812,"EPHEMERIS_TYPE":0,"CLASSIFICATION_TYPE":"U","NORAD_CAT_ID":47935,"ELEMENT_SET_NO":999,"REV_AT_EPOCH":27101,"BSTAR":0.00018239,"MEAN_MOTION_DOT":2.189e-5,"MEAN_MOTION_DDOT":0},{"OBJECT_NAME":"STARLINK-3043","OBJECT_ID":"2021-082BB","EPOCH":"2026-03-09T12:19:03.739872","MEAN_MOTION":14.98311271,"ECCENTRICITY":0.0001755,"INCLINATION":69.999,"RA_OF_ASC_NODE":254.885,"ARG_OF_PERICENTER":265.2831,"MEAN_ANOMALY":94.8127,"EPHEMERIS_TYPE":0,"CLASSIFICATION_TYPE":"U","NORAD_CAT_ID":49179,"ELEMENT_SET_NO":999,"REV_AT_EPOCH":24693,"BSTAR":0.00023207,"MEAN_MOTION_DOT":2.676e-5,"MEAN_MOTION_DDOT":0}]
